COSMOS 2251 DEB         
1 34816U 93036ABF 24366.73050833  .00001532  00000+0  13758-2 0  9999
2 34816  73.8888 347.3125 0373409 114.1650  56.4032 13.57479164780861
COSMOS 2251 DEB         
1 34818U 93036ABH 24365.88129073  .00001679  00000+0  58223-3 0  9998
2 34818  74.0339 214.3804 0024387  16.3770 355.4448 14.36230079823890
COSMOS 2251 DEB         
1 34819U 93036ABJ 24365.50991323  .00019903  00000+0  43632-2 0  9999
2 34819  74.0222  86.9567 0020405 272.6516  98.8652 14.57466523831581
COSMOS 2251 DEB         
1 34823U 93036ABN 24366.82476641  .00007784  00000+0  16165-2 0  9996
2 34823  74.0427  35.6902 0162158 208.1368 151.0963 14.52284325833557
COSMOS 2251 DEB         
1 34845U 93036ABP 24365.91778008  .00002935  00000+0  84876-3 0  9999
2 34845  74.0272  75.2247 0023485 319.8718  40.0704 14.44829539824552
COSMOS 2251 DEB         
1 34846U 93036ABQ 24366.60210613  .00008589  00000+0  24897-2 0  9997
2 34846  74.0302 187.6971 0026904 342.0570  17.9635 14.44322289824019
COSMOS 2251 DEB         
1 34847U 93036ABR 24366.74386346  .00089499  00000+0  25385-2 0  9992
2 34847  74.0078  14.0526 0037682 161.0438 199.2180 15.35098832628753
COSMOS 2251 DEB         
1 34852U 93036ABW 24366.84205669  .00001147  00000+0  39817-3 0  9997
2 34852  74.0310 178.9528 0016388   6.9245 353.2131 14.36617271825664
COSMOS 2251 DEB         
1 34854U 93036ABY 24365.59426347  .00013362  00000+0  20361-2 0  9993
2 34854  74.0326 116.7918 0072666 317.6702  41.8876 14.72147357667659
COSMOS 2251 DEB         
1 34856U 93036ACA 24366.61773365  .00034695  00000+0  36059-2 0  9997
2 34856  74.0048  66.6708 0054709 292.5957 219.8646 14.88623527839437
COSMOS 2251 DEB         
1 34857U 93036ACB 24366.89225101  .00012640  00000+0  28465-2 0  9996
2 34857  74.0179  44.4198 0073049 255.0165 160.4514 14.54789285828646
COSMOS 2251 DEB         
1 34859U 93036ACD 24366.15619188  .00055925  00000+0  68695-2 0  9991
2 34859  74.0356 320.2375 0008688 209.7046 160.9450 14.82719366831752
COSMOS 2251 DEB         
1 34861U 93036ACF 24366.82514354  .00035835  00000+0  48961-2 0  9999
2 34861  74.0218  24.0738 0008355 217.0853 316.5038 14.78385268829396
COSMOS 2251 DEB         
1 34874U 93036ACM 24365.67237448  .00006243  00000+0  22131-2 0  9993
2 34874  74.0389 350.0003 0051179 101.5929  15.5950 14.33941913820654
COSMOS 2251 DEB         
1 34875U 93036ACN 24366.62040691  .00005720  00000+0  15685-2 0  9997
2 34875  74.0470  85.8932 0017747 296.4089 132.3680 14.47218881827453
COSMOS 2251 DEB         
1 34878U 93036ACR 24366.42665098  .00002725  00000+0  26928-2 0  9996
2 34878  73.9643 236.4993 0438662 286.9144 252.4437 13.43449360766208
COSMOS 2251 DEB         
1 34882U 93036ACV 24366.87878677  .00002383  00000+0  47265-3 0  9997
2 34882  74.0461 166.3836 0083876  22.4371 338.0428 14.60589919834738
COSMOS 2251 DEB         
1 34883U 93036ACW 24366.67053593  .00036353  00000+0  10850-1 0  9990
2 34883  74.2050 341.2488 0124435 264.1479  94.5480 14.38389855814409
COSMOS 2251 DEB         
1 34884U 93036ACX 24366.51001285  .00032690  00000+0  51320-2 0  9993
2 34884  74.0243  20.5828 0009926 237.0126 283.6786 14.72429637826798
COSMOS 2251 DEB         
1 34885U 93036ACY 24365.79131973  .00010418  00000+0  27635-2 0  9997
2 34885  74.0338 114.9578 0017212 289.4555 232.9157 14.48678612824494
COSMOS 2251 DEB         
1 34886U 93036ACZ 24360.85240011  .00034629  00000+0  22774-2 0  9993
2 34886  73.9652 202.1025 0062501 112.8487 247.9319 15.05794026844729
COSMOS 2251 DEB         
1 34907U 93036ADC 24366.42996705  .00054143  00000+0  68329-2 0  9993
2 34907  74.0017  36.9827 0007561 275.1339 147.4366 14.81608074827724
COSMOS 2251 DEB         
1 34908U 93036ADD 24366.60825657  .00006325  00000+0  21761-2 0  9999
2 34908  74.0610 298.9192 0040163  42.8406 130.4913 14.35718689823086
COSMOS 2251 DEB         
1 34909U 93036ADE 24366.50528297  .00011214  00000+0  15907-2 0  9997
2 34909  74.0155  35.3550 0092062 259.0509 100.0296 14.74145414617433
COSMOS 2251 DEB         
1 34910U 93036ADF 24365.10194689  .00001237  00000+0  12829-2 0  9992
2 34910  73.8759 289.7086 0468669 107.8023 271.6278 13.36979873768772
COSMOS 2251 DEB         
1 34911U 93036ADG 24366.76058458  .00001751  00000+0  36440-3 0  9996
2 34911  74.0400 183.7593 0084262  37.5713 334.8159 14.58602210835412
COSMOS 2251 DEB         
1 34913U 93036ADJ 24366.94630969  .00000391  00000+0  14776-3 0  9998
2 34913  74.0260 196.1376 0020508  29.6745  40.9462 14.34485316602295
COSMOS 2251 DEB         
1 34914U 93036ADK 24366.56835456  .00149425  00000+0  58627-2 0  9999
2 34914  73.9795  83.1430 0061590  67.4832 293.2870 15.23288437839052
COSMOS 2251 DEB         
1 34918U 93036ADP 24364.40961899  .00018854  00000+0  45155-2 0  9998
2 34918  74.0757 254.2905 0036243 306.9502 170.6574 14.53084628602613
COSMOS 2251 DEB         
1 34920U 93036ADR 24366.39905961  .00098571  00000+0  86318-2 0  9999
2 34920  74.0113 353.2044 0008902 279.2062  80.8116 14.96122206622269
