OBJECT_NAME,OBJECT_ID,EPOCH,MEAN_MOTION,ECCENTRICITY,INCLINATION,RA_OF_ASC_NODE,ARG_OF_PERICENTER,MEAN_ANOMALY,EPHEMERIS_TYPE,CLASSIFICATION_TYPE,NORAD_CAT_ID,ELEMENT_SET_NO,REV_AT_EPOCH,BSTAR,MEAN_MOTION_DOT,MEAN_MOTION_DDOT
COSMOS 2251 DEB,1993-036ABF,2024-12-31T17:31:55.919712,13.57479164,0.0373409,73.8888,347.3125,114.165,56.4032,0,U,34816,999,78086,1.38E-03,1.53E-05,0
COSMOS 2251 DEB,1993-036ABH,2024-12-30T21:09:03.519072,14.36230079,0.0024387,74.0339,214.3804,16.377,355.4448,0,U,34818,999,82389,5.82E-04,1.68E-05,0
COSMOS 2251 DEB,1993-036ABJ,2024-12-30T12:14:16.503072,14.57466523,0.0020405,74.0222,86.9567,272.6516,98.8652,0,U,34819,999,83158,4.36E-03,1.99E-04,0
COSMOS 2251 DEB,1993-036ABN,2024-12-31T19:47:39.817824,14.52284325,0.0162158,74.0427,35.6902,208.1368,151.0963,0,U,34823,999,83355,1.62E-03,7.78E-05,0
COSMOS 2251 DEB,1993-036ABP,2024-12-30T22:01:36.198912,14.44829539,0.0023485,74.0272,75.2247,319.8718,40.0704,0,U,34845,999,82455,8.49E-04,2.94E-05,0
COSMOS 2251 DEB,1993-036ABQ,2024-12-31T14:27:01.969632,14.44322289,0.0026904,74.0302,187.6971,342.057,17.9635,0,U,34846,999,82401,2.49E-03,8.59E-05,0
COSMOS 2251 DEB,1993-036ABR,2024-12-31T17:51:09.802944,15.35098832,0.0037682,74.0078,14.0526,161.0438,199.218,0,U,34847,999,62875,2.54E-03,8.95E-04,0
COSMOS 2251 DEB,1993-036ABW,2024-12-31T20:12:33.698016,14.36617271,0.0016388,74.031,178.9528,6.9245,353.2131,0,U,34852,999,82566,3.98E-04,1.15E-05,0
COSMOS 2251 DEB,1993-036ABY,2024-12-30T14:15:44.363808,14.72147357,0.0072666,74.0326,116.7918,317.6702,41.8876,0,U,34854,999,66765,2.04E-03,1.34E-04,0
COSMOS 2251 DEB,1993-036ACA,2024-12-31T14:49:32.187360,14.88623527,0.0054709,74.0048,66.6708,292.5957,219.8646,0,U,34856,999,83943,3.61E-03,3.47E-04,0
COSMOS 2251 DEB,1993-036ACB,2024-12-31T21:24:50.487264,14.54789285,0.0073049,74.0179,44.4198,255.0165,160.4514,0,U,34857,999,82864,2.85E-03,1.26E-04,0
COSMOS 2251 DEB,1993-036ACD,2024-12-31T03:44:54.978432,14.82719366,0.0008688,74.0356,320.2375,209.7046,160.945,0,U,34859,999,83175,6.87E-03,5.59E-04,0
COSMOS 2251 DEB,1993-036ACF,2024-12-31T19:48:12.401856,14.78385268,0.0008355,74.0218,24.0738,217.0853,316.5038,0,U,34861,999,82939,4.90E-03,3.58E-04,0
COSMOS 2251 DEB,1993-036ACM,2024-12-30T16:08:13.155072,14.33941913,0.0051179,74.0389,350.0003,101.5929,15.595,0,U,34874,999,82065,2.21E-03,6.24E-05,0
COSMOS 2251 DEB,1993-036ACN,2024-12-31T14:53:23.157024,14.47218881,0.0017747,74.047,85.8932,296.4089,132.368,0,U,34875,999,82745,1.57E-03,5.72E-05,0
COSMOS 2251 DEB,1993-036ACR,2024-12-31T10:14:22.644672,13.4344936,0.0438662,73.9643,236.4993,286.9144,252.4437,0,U,34878,999,76620,2.69E-03,2.73E-05,0
COSMOS 2251 DEB,1993-036ACV,2024-12-31T21:05:27.176928,14.60589919,0.0083876,74.0461,166.3836,22.4371,338.0428,0,U,34882,999,83473,4.73E-04,2.38E-05,0
COSMOS 2251 DEB,1993-036ACW,2024-12-31T16:05:34.304352,14.38389855,0.0124435,74.205,341.2488,264.1479,94.548,0,U,34883,999,81440,1.09E-02,3.64E-04,0
COSMOS 2251 DEB,1993-036ACX,2024-12-31T12:14:25.110240,14.72429637,0.0009926,74.0243,20.5828,237.0126,283.6786,0,U,34884,999,82679,5.13E-03,3.27E-04,0
COSMOS 2251 DEB,1993-036ACY,2024-12-30T18:59:30.024672,14.48678612,0.0017212,74.0338,114.9578,289.4555,232.9157,0,U,34885,999,82449,2.76E-03,1.04E-04,0
COSMOS 2251 DEB,1993-036ACZ,2024-12-25T20:27:27.369504,15.05794026,0.0062501,73.9652,202.1025,112.8487,247.9319,0,U,34886,999,84472,2.28E-03,3.46E-04,0
COSMOS 2251 DEB,1993-036ADC,2024-12-31T10:19:09.153120,14.81608074,0.0007561,74.0017,36.9827,275.1339,147.4366,0,U,34907,999,82772,6.83E-03,5.41E-04,0
COSMOS 2251 DEB,1993-036ADD,2024-12-31T14:35:53.367648,14.35718689,0.0040163,74.061,298.9192,42.8406,130.4913,0,U,34908,999,82308,2.18E-03,6.33E-05,0
COSMOS 2251 DEB,1993-036ADE,2024-12-31T12:07:36.448608,14.74145414,0.0092062,74.0155,35.355,259.0509,100.0296,0,U,34909,999,61743,1.59E-03,1.12E-04,0
COSMOS 2251 DEB,1993-036ADF,2024-12-30T02:26:48.211296,13.36979873,0.0468669,73.8759,289.7086,107.8023,271.6278,0,U,34910,999,76877,1.28E-03,1.24E-05,0
COSMOS 2251 DEB,1993-036ADG,2024-12-31T18:15:14.507712,14.5860221,0.0084262,74.04,183.7593,37.5713,334.8159,0,U,34911,999,83541,3.64E-04,1.75E-05,0
COSMOS 2251 DEB,1993-036ADJ,2024-12-31T22:42:41.157216,14.34485316,0.0020508,74.026,196.1376,29.6745,40.9462,0,U,34913,999,60229,1.48E-04,3.91E-06,0
COSMOS 2251 DEB,1993-036ADK,2024-12-31T13:38:25.833984,15.23288437,0.006159,73.9795,83.143,67.4832,293.287,0,U,34914,999,83905,5.86E-03,1.49E-03,0
COSMOS 2251 DEB,1993-036ADP,2024-12-29T09:49:51.080736,14.53084628,0.0036243,74.0757,254.2905,306.9502,170.6574,0,U,34918,999,60261,4.52E-03,1.89E-04,0
COSMOS 2251 DEB,1993-036ADR,2024-12-31T09:34:38.750304,14.96122206,0.0008902,74.0113,353.2044,279.2062,80.8116,0,U,34920,999,62226,8.63E-03,9.86E-04,0
